[
  {
    "OBJECT_NAME": "STARLINK-35223",
    "OBJECT_ID": "25198C",
    "EPOCH": "2025-11-11T03:51:53.767872",
    "MEAN_MOTION": 15.39663187,
    "ECCENTRICITY": 0.0001226,
    "INCLINATION": 53.1629,
    "RA_OF_ASC_NODE": 107.1751,
    "ARG_OF_PERICENTER": 65.2505,
    "MEAN_ANOMALY": 294.8628,
    "EPHEMERIS_TYPE": 0,
    "CLASSIFICATION_TYPE": "U",
    "NORAD_CAT_ID": 65494,
    "ELEMENT_SET_NO": 999,
    "REV_AT_EPOCH": 1039,
    "BSTAR": 0.0023327,
    "MEAN_MOTION_DOT": 0.00094199,
    "MEAN_MOTION_DDOT": 0.0,
    "TLE_LINE1": "1 65494U 25198C   25315.16103898  .00094199  00000+0  23327-2 0  9995",
    "TLE_LINE2": "2 65494  53.1629 107.1751 0001226  65.2505 294.8628 15.39663187 10393",
    "COMMENT": "Grouped by shell and plane from TLE"
  },
  {
    "OBJECT_NAME": "STARLINK-34446",
    "OBJECT_ID": "25198D",
    "EPOCH": "2025-11-11T03:05:14.779392",
    "MEAN_MOTION": 15.39629659,
    "ECCENTRICITY": 0.0004978,
    "INCLINATION": 53.1545,
    "RA_OF_ASC_NODE": 107.6873,
    "ARG_OF_PERICENTER": 80.2617,
    "MEAN_ANOMALY": 279.895,
    "EPHEMERIS_TYPE": 0,
    "CLASSIFICATION_TYPE": "U",
    "NORAD_CAT_ID": 65495,
    "ELEMENT_SET_NO": 999,
    "REV_AT_EPOCH": 1038,
    "BSTAR": 0.0012606000000000002,
    "MEAN_MOTION_DOT": 0.00050388,
    "MEAN_MOTION_DDOT": 0.0,
    "TLE_LINE1": "1 65495U 25198D   25315.12864328  .00050388  00000+0  12606-2 0  9994",
    "TLE_LINE2": "2 65495  53.1545 107.6873 0004978  80.2617 279.8950 15.39629659 10385",
    "COMMENT": "Grouped by shell and plane from TLE"
  },
  {
    "OBJECT_NAME": "STARLINK-35212",
    "OBJECT_ID": "25198E",
    "EPOCH": "2025-11-10T16:44:41.556480",
    "MEAN_MOTION": 15.39616791,
    "ECCENTRICITY": 0.0001169,
    "INCLINATION": 53.1603,
    "RA_OF_ASC_NODE": 109.2581,
    "ARG_OF_PERICENTER": 62.241,
    "MEAN_ANOMALY": 297.8713,
    "EPHEMERIS_TYPE": 0,
    "CLASSIFICATION_TYPE": "U",
    "NORAD_CAT_ID": 65496,
    "ELEMENT_SET_NO": 999,
    "REV_AT_EPOCH": 1032,
    "BSTAR": 0.0020477,
    "MEAN_MOTION_DOT": 0.00082386,
    "MEAN_MOTION_DDOT": 0.0,
    "TLE_LINE1": "1 65496U 25198E   25314.69770320  .00082386  00000+0  20477-2 0  9992",
    "TLE_LINE2": "2 65496  53.1603 109.2581 0001169  62.2410 297.8713 15.39616791 10329",
    "COMMENT": "Grouped by shell and plane from TLE"
  },
  {
    "OBJECT_NAME": "STARLINK-34455",
    "OBJECT_ID": "25198F",
    "EPOCH": "2025-11-10T22:11:52.840032",
    "MEAN_MOTION": 15.3964292,
    "ECCENTRICITY": 0.00014,
    "INCLINATION": 53.1527,
    "RA_OF_ASC_NODE": 108.5444,
    "ARG_OF_PERICENTER": 83.5293,
    "MEAN_ANOMALY": 276.5872,
    "EPHEMERIS_TYPE": 0,
    "CLASSIFICATION_TYPE": "U",
    "NORAD_CAT_ID": 65497,
    "ELEMENT_SET_NO": 999,
    "REV_AT_EPOCH": 1035,
    "BSTAR": 0.00081815,
    "MEAN_MOTION_DOT": 0.0003249,
    "MEAN_MOTION_DDOT": 0.0,
    "TLE_LINE1": "1 65497U 25198F   25314.92491713  .00032490  00000+0  81815-3 0  9990",
    "TLE_LINE2": "2 65497  53.1527 108.5444 0001400  83.5293 276.5872 15.39642920 10354",
    "COMMENT": "Grouped by shell and plane from TLE"
  },
  {
    "OBJECT_NAME": "STARLINK-35166",
    "OBJECT_ID": "25198H",
    "EPOCH": "2025-11-10T20:11:11.312160",
    "MEAN_MOTION": 15.39672032,
    "ECCENTRICITY": 0.0001665,
    "INCLINATION": 53.1662,
    "RA_OF_ASC_NODE": 108.7308,
    "ARG_OF_PERICENTER": 315.7245,
    "MEAN_ANOMALY": 44.3626,
    "EPHEMERIS_TYPE": 0,
    "CLASSIFICATION_TYPE": "U",
    "NORAD_CAT_ID": 65499,
    "ELEMENT_SET_NO": 999,
    "REV_AT_EPOCH": 1034,
    "BSTAR": 0.0015275,
    "MEAN_MOTION_DOT": 0.00061296,
    "MEAN_MOTION_DDOT": 0.0,
    "TLE_LINE1": "1 65499U 25198H   25314.84110315  .00061296  00000+0  15275-2 0  9991",
    "TLE_LINE2": "2 65499  53.1662 108.7308 0001665 315.7245  44.3626 15.39672032 10341",
    "COMMENT": "Grouped by shell and plane from TLE"
  },
  {
    "OBJECT_NAME": "STARLINK-35207",
    "OBJECT_ID": "25198J",
    "EPOCH": "2025-11-10T20:17:52.552896",
    "MEAN_MOTION": 15.39668481,
    "ECCENTRICITY": 0.0001169,
    "INCLINATION": 53.1637,
    "RA_OF_ASC_NODE": 108.7601,
    "ARG_OF_PERICENTER": 326.6507,
    "MEAN_ANOMALY": 33.4424,
    "EPHEMERIS_TYPE": 0,
    "CLASSIFICATION_TYPE": "U",
    "NORAD_CAT_ID": 65500,
    "ELEMENT_SET_NO": 999,
    "REV_AT_EPOCH": 1034,
    "BSTAR": 0.0013431,
    "MEAN_MOTION_DOT": 0.00053787,
    "MEAN_MOTION_DDOT": 0.0,
    "TLE_LINE1": "1 65500U 25198J   25314.84574714  .00053787  00000+0  13431-2 0  9999",
    "TLE_LINE2": "2 65500  53.1637 108.7601 0001169 326.6507  33.4424 15.39668481 10341",
    "COMMENT": "Grouped by shell and plane from TLE"
  },
  {
    "OBJECT_NAME": "STARLINK-35140",
    "OBJECT_ID": "25198K",
    "EPOCH": "2025-11-10T20:31:43.745952",
    "MEAN_MOTION": 15.39648022,
    "ECCENTRICITY": 8.97e-05,
    "INCLINATION": 53.1587,
    "RA_OF_ASC_NODE": 108.8202,
    "ARG_OF_PERICENTER": 84.4123,
    "MEAN_ANOMALY": 275.6984,
    "EPHEMERIS_TYPE": 0,
    "CLASSIFICATION_TYPE": "U",
    "NORAD_CAT_ID": 65501,
    "ELEMENT_SET_NO": 999,
    "REV_AT_EPOCH": 1034,
    "BSTAR": 0.0011969,
    "MEAN_MOTION_DOT": 0.00047821,
    "MEAN_MOTION_DDOT": 0.0,
    "TLE_LINE1": "1 65501U 25198K   25314.85536743  .00047821  00000+0  11969-2 0  9997",
    "TLE_LINE2": "2 65501  53.1587 108.8202 0000897  84.4123 275.6984 15.39648022 10344",
    "COMMENT": "Grouped by shell and plane from TLE"
  },
  {
    "OBJECT_NAME": "STARLINK-35114",
    "OBJECT_ID": "25198L",
    "EPOCH": "2025-11-11T03:18:35.845632",
    "MEAN_MOTION": 15.39638496,
    "ECCENTRICITY": 0.000147,
    "INCLINATION": 53.1583,
    "RA_OF_ASC_NODE": 107.7457,
    "ARG_OF_PERICENTER": 84.2628,
    "MEAN_ANOMALY": 275.8545,
    "EPHEMERIS_TYPE": 0,
    "CLASSIFICATION_TYPE": "U",
    "NORAD_CAT_ID": 65502,
    "ELEMENT_SET_NO": 999,
    "REV_AT_EPOCH": 1038,
    "BSTAR": 0.0016830999999999999,
    "MEAN_MOTION_DOT": 0.00067563,
    "MEAN_MOTION_DDOT": 0.0,
    "TLE_LINE1": "1 65502U 25198L   25315.13791488  .00067563  00000+0  16831-2 0  9997",
    "TLE_LINE2": "2 65502  53.1583 107.7457 0001470  84.2628 275.8545 15.39638496 10380",
    "COMMENT": "Grouped by shell and plane from TLE"
  },
  {
    "OBJECT_NAME": "STARLINK-35126",
    "OBJECT_ID": "25198M",
    "EPOCH": "2025-11-10T20:45:06.249024",
    "MEAN_MOTION": 15.39649656,
    "ECCENTRICITY": 0.0001144,
    "INCLINATION": 53.1622,
    "RA_OF_ASC_NODE": 108.8796,
    "ARG_OF_PERICENTER": 74.7923,
    "MEAN_ANOMALY": 285.3208,
    "EPHEMERIS_TYPE": 0,
    "CLASSIFICATION_TYPE": "U",
    "NORAD_CAT_ID": 65503,
    "ELEMENT_SET_NO": 999,
    "REV_AT_EPOCH": 1034,
    "BSTAR": 0.0014338,
    "MEAN_MOTION_DOT": 0.00057441,
    "MEAN_MOTION_DDOT": 0.0,
    "TLE_LINE1": "1 65503U 25198M   25314.86465566  .00057441  00000+0  14338-2 0  9996",
    "TLE_LINE2": "2 65503  53.1622 108.8796 0001144  74.7923 285.3208 15.39649656 10341",
    "COMMENT": "Grouped by shell and plane from TLE"
  },
  {
    "OBJECT_NAME": "STARLINK-35182",
    "OBJECT_ID": "25198N",
    "EPOCH": "2025-11-11T03:32:18.846240",
    "MEAN_MOTION": 15.39638375,
    "ECCENTRICITY": 0.0001999,
    "INCLINATION": 53.158,
    "RA_OF_ASC_NODE": 107.0865,
    "ARG_OF_PERICENTER": 74.4468,
    "MEAN_ANOMALY": 285.6758,
    "EPHEMERIS_TYPE": 0,
    "CLASSIFICATION_TYPE": "U",
    "NORAD_CAT_ID": 65504,
    "ELEMENT_SET_NO": 999,
    "REV_AT_EPOCH": 1039,
    "BSTAR": 0.0014024,
    "MEAN_MOTION_DOT": 0.00056145,
    "MEAN_MOTION_DDOT": 0.0,
    "TLE_LINE1": "1 65504U 25198N   25315.14744035  .00056145  00000+0  14024-2 0  9992",
    "TLE_LINE2": "2 65504  53.1580 107.0865 0001999  74.4468 285.6758 15.39638375 10396",
    "COMMENT": "Grouped by shell and plane from TLE"
  },
  {
    "OBJECT_NAME": "STARLINK-35072",
    "OBJECT_ID": "25198P",
    "EPOCH": "2025-11-11T03:45:41.264640",
    "MEAN_MOTION": 15.39647,
    "ECCENTRICITY": 0.0001955,
    "INCLINATION": 53.1608,
    "RA_OF_ASC_NODE": 107.1438,
    "ARG_OF_PERICENTER": 76.3483,
    "MEAN_ANOMALY": 283.7739,
    "EPHEMERIS_TYPE": 0,
    "CLASSIFICATION_TYPE": "U",
    "NORAD_CAT_ID": 65505,
    "ELEMENT_SET_NO": 999,
    "REV_AT_EPOCH": 1039,
    "BSTAR": 0.0021072,
    "MEAN_MOTION_DOT": 0.00084908,
    "MEAN_MOTION_DDOT": 0.0,
    "TLE_LINE1": "1 65505U 25198P   25315.15672760  .00084908  00000+0  21072-2 0  9998",
    "TLE_LINE2": "2 65505  53.1608 107.1438 0001955  76.3483 283.7739 15.39647000 10398",
    "COMMENT": "Grouped by shell and plane from TLE"
  },
  {
    "OBJECT_NAME": "STARLINK-35184",
    "OBJECT_ID": "25198Q",
    "EPOCH": "2025-11-11T03:19:04.421568",
    "MEAN_MOTION": 15.3964456,
    "ECCENTRICITY": 0.0001876,
    "INCLINATION": 53.1576,
    "RA_OF_ASC_NODE": 107.745,
    "ARG_OF_PERICENTER": 82.9544,
    "MEAN_ANOMALY": 277.1674,
    "EPHEMERIS_TYPE": 0,
    "CLASSIFICATION_TYPE": "U",
    "NORAD_CAT_ID": 65506,
    "ELEMENT_SET_NO": 999,
    "REV_AT_EPOCH": 1038,
    "BSTAR": 0.0018022,
    "MEAN_MOTION_DOT": 0.00072434,
    "MEAN_MOTION_DDOT": 0.0,
    "TLE_LINE1": "1 65506U 25198Q   25315.13824562  .00072434  00000+0  18022-2 0  9998",
    "TLE_LINE2": "2 65506  53.1576 107.7450 0001876  82.9544 277.1674 15.39644560 10388",
    "COMMENT": "Grouped by shell and plane from TLE"
  },
  {
    "OBJECT_NAME": "STARLINK-35163",
    "OBJECT_ID": "25198R",
    "EPOCH": "2025-11-11T03:05:42.271008",
    "MEAN_MOTION": 15.39638643,
    "ECCENTRICITY": 0.0002851,
    "INCLINATION": 53.1565,
    "RA_OF_ASC_NODE": 107.6852,
    "ARG_OF_PERICENTER": 64.9451,
    "MEAN_ANOMALY": 295.185,
    "EPHEMERIS_TYPE": 0,
    "CLASSIFICATION_TYPE": "U",
    "NORAD_CAT_ID": 65507,
    "ELEMENT_SET_NO": 999,
    "REV_AT_EPOCH": 1038,
    "BSTAR": 0.0017760999999999999,
    "MEAN_MOTION_DOT": 0.0007136,
    "MEAN_MOTION_DDOT": 0.0,
    "TLE_LINE1": "1 65507U 25198R   25315.12896147  .00071360  00000+0  17761-2 0  9992",
    "TLE_LINE2": "2 65507  53.1565 107.6852 0002851  64.9451 295.1850 15.39638643 10384",
    "COMMENT": "Grouped by shell and plane from TLE"
  }
]